{
  "version": 0.6,
  "generator": "Overpass API 0.7.61.5 4133829e",
  "osm3s": {
    "timestamp_osm_base": "2024-01-08T08:33:43Z",
    "copyright": "The data included in this document is from www.openstreetmap.org. The data is made available under ODbL."
  },
  "elements": [

    {
      "type": "node",
      "id": 33185107,
      "lat": 55.9536732,
      "lon": -3.1901937,
      "tags": {
        "addr:city": "Edinburgh",
        "addr:housenumber": "1-3",
        "addr:postcode": "EH2 2AA",
        "addr:street": "West Register Street",
        "amenity": "pub",
        "description": "Victorian pub including the Gallery restaurant upstairs",
        "fhrs:id": "95924",
        "food": "yes",
        "name": "Guildford Arms",
        "operator": "D.M. Stewart Ltd",
        "phone": "+44 131 556 4312",
        "real_ale": "10 or so beers",
        "source": "survey",
        "website": "https://guildfordarms.com/",
        "wheelchair": "no"
      }
    },
    {
      "type": "node",
      "id": 57542915,
      "lat": 55.9537951,
      "lon": -3.1904838,
      "tags": {
        "addr:city": "Edinburgh",
        "addr:country": "GB",
        "addr:housenumber": "19",
        "addr:postcode": "EH2 2AA",
        "addr:street": "West Register Street",
        "amenity": "pub",
        "fhrs:id": "95974",
        "food": "yes",
        "name": "Cafe Royal",
        "opening_hours": "Mo-We 11:00-23:00; Th 11:00-00:00; Fr-Sa 11:00-01:00; Su 11:00-23:00",
        "phone": "+44 131 556 1884",
        "website": "http://www.caferoyaledinburgh.co.uk/"
      }
    },
    {
      "type": "node",
      "id": 249967014,
      "lat": 55.9500405,
      "lon": -3.1873006,
      "tags": {
        "addr:city": "Edinburgh",
        "addr:housenumber": "82",
        "addr:postcode": "EH1 1LL",
        "addr:street": "High Street",
        "amenity": "pub",
        "fhrs:id": "662760",
        "name": "The Inn On The Mile",
        "source": "survey",
        "toilets:wheelchair": "no",
        "tourism": "hotel",
        "website": "https://www.theinnonthemile.co.uk/",
        "wheelchair": "yes"
      }
    },
    {
      "type": "node",
      "id": 511213047,
      "lat": 55.9506580,
      "lon": -3.1906398,
      "tags": {
        "addr:city": "Edinburgh",
        "addr:country": "GB",
        "addr:housenumber": "11-15",
        "addr:postcode": "EH1 1BP",
        "addr:street": "Cockburn Street",
        "amenity": "pub",
        "fhrs:id": "119880",
        "indoor_seating": "yes",
        "name": "The Malt Shovel",
        "outdoor_seating": "yes",
        "wheelchair": "no"
      }
    },
    {
      "type": "node",
      "id": 626986693,
      "lat": 55.9503992,
      "lon": -3.1867667,
      "tags": {
        "addr:city": "Edinburgh",
        "addr:housenumber": "127",
        "addr:street": "High Street",
        "amenity": "pub",
        "indoor_seating": "yes",
        "name": "The Royal Mile",
        "outdoor_seating": "yes",
        "source": "survey"
      }
    },
    {
      "type": "node",
      "id": 639106656,
      "lat": 55.9501558,
      "lon": -3.1884318,
      "tags": {
        "addr:city": "Edinburgh",
        "addr:country": "GB",
        "addr:housenumber": "197",
        "addr:postcode": "EH1 1PE",
        "addr:street": "High Street",
        "amenity": "pub",
        "brand": "Belhaven Pubs",
        "brand:wikidata": "Q105516156",
        "contact:website": "https://www.belhavenpubs.co.uk/pubs/midlothian/albanach/",
        "fhrs:id": "63058",
        "indoor_seating": "yes",
        "name": "The Albanach",
        "outdoor_seating": "yes"
      }
    },
    {
      "type": "node",
      "id": 732958018,
      "lat": 55.9503821,
      "lon": -3.1868960,
      "tags": {
        "addr:city": "Edinburgh",
        "addr:housenumber": "131-133",
        "addr:postcode": "EH1 1SG",
        "addr:street": "High Street",
        "amenity": "pub",
        "diet:vegan": "yes",
        "diet:vegetarian": "yes",
        "fhrs:id": "71588",
        "food": "yes",
        "indoor_seating": "yes",
        "name": "The Mitre",
        "outdoor_seating": "yes",
        "source": "survey",
        "source:addr:postcode": "FHRS Open Data"
      }
    },
    {
      "type": "node",
      "id": 839139665,
      "lat": 55.9495835,
      "lon": -3.1876144,
      "tags": {
        "addr:city": "Edinburgh",
        "addr:housenumber": "9",
        "addr:postcode": "EH1 1QW",
        "addr:street": "Hunter Square",
        "amenity": "pub",
        "check_date": "2023-03-29",
        "fhrs:id": "121749",
        "name": "The Tron",
        "source": "survey",
        "website": "https://www.thetronedinburgh.co.uk/",
        "wheelchair": "limited"
      }
    },
    {
      "type": "node",
      "id": 913817636,
      "lat": 55.9537866,
      "lon": -3.1881695,
      "tags": {
        "addr:city": "Edinburgh",
        "addr:housenumber": "5-11",
        "addr:postcode": "EH1 3AT",
        "addr:street": "Leith Street",
        "amenity": "pub",
        "brewery": "yes",
        "check_date": "2023-04-30",
        "fhrs:id": "66255",
        "level": "0",
        "name": "Newsroom",
        "opening_hours": "Mo-Su 11:00-01:00",
        "payment:american_express": "yes",
        "phone": "+44 131 557 5830",
        "source": "survey",
        "website": "https://www.newsroomedinburgh.co.uk/",
        "wheelchair": "no"
      }
    },
    {
      "type": "node",
      "id": 1327629857,
      "lat": 55.9570705,
      "lon": -3.1879231,
      "tags": {
        "addr:city": "Edinburgh",
        "addr:housenumber": "25",
        "addr:street": "Broughton Street",
        "amenity": "pub",
        "indoor_seating": "yes",
        "name": "Matherâ€™s",
        "old_name": "The Empress",
        "outdoor_seating": "no",
        "phone": "+44 131 556 6754",
        "source": "survey"
      }
    },
    {
      "type": "node",
      "id": 1361026044,
      "lat": 55.9493788,
      "lon": -3.1869167,
      "tags": {
        "addr:city": "Edinburgh",
        "addr:housenumber": "29-35",
        "addr:postcode": "EH1 1LG",
        "addr:street": "Niddry Street",
        "amenity": "pub",
        "fhrs:id": "108020",
        "name": "The Banshee Labyrinth",
        "phone": "+44 131 558 8209",
        "website": "https://www.thebansheelabyrinth.com/",
        "wheelchair": "no"
      }
    },
    {
      "type": "node",
      "id": 1367337816,
      "lat": 55.9532705,
      "lon": -3.1946516,
      "tags": {
        "addr:city": "Edinburgh",
        "addr:housenumber": "3-5",
        "addr:postcode": "EH2 2PR",
        "addr:street": "Rose Street",
        "amenity": "pub",
        "contact:facebook": "https://www.facebook.com/TheAbbotsfordBar/",
        "description:floor": "uncarpeted",
        "fhrs:id": "96000",
        "food": "yes",
        "name": "Abbotsford",
        "real_ale": "3 or more beers",
        "source": "survey",
        "website": "https://theabbotsford.com/"
      }
    },
    {
      "type": "node",
      "id": 1369539068,
      "lat": 55.9503609,
      "lon": -3.1881082,
      "tags": {
        "addr:city": "Edinburgh",
        "addr:country": "GB",
        "addr:housenumber": "73",
        "addr:postcode": "EH1 1BU",
        "addr:street": "Cockburn Street",
        "amenity": "pub",
        "brewery": "yes",
        "contact:facebook": "scotsmanlounge",
        "contact:instagram": "scotsmans_lounge",
        "email": "scotsmanlounge@hotmail.com",
        "fhrs:id": "120204",
        "indoor_seating": "yes",
        "name": "Scotsman's Lounge",
        "opening_hours": "Mo-Sa 09:00-01:00; Su 11:00-01:00",
        "outdoor_seating": "yes",
        "phone": "+44 131 225 7726",
        "source": "survey",
        "website": "https://www.thescotsmanslounge.co.uk/",
        "wheelchair": "no"
      }
    },
    {
      "type": "node",
      "id": 1437376909,
      "lat": 55.9564749,
      "lon": -3.1878523,
      "tags": {
        "addr:city": "Edinburgh",
        "addr:housenumber": "73",
        "addr:street": "York Place",
        "amenity": "pub",
        "name": "Conan Doyle",
        "website": "https://www.nicholsonspubs.co.uk/theconandoyleedinburgh/"
      }
    },
    {
      "type": "node",
      "id": 1437376910,
      "lat": 55.9571783,
      "lon": -3.1850761,
      "tags": {
        "addr:city": "Edinburgh",
        "addr:housenumber": "26-27",
        "addr:postcode": "EH1 3AA",
        "addr:street": "Greenside Place",
        "amenity": "pub",
        "check_date": "2023-03-28",
        "description:floor": "uncarpeted",
        "food": "yes",
        "name": "Theatre Royal",
        "opening_hours": "Mo-Th 11:30-00:00; Fr-Sa 11:30-01:00; Su 12:30-00:00",
        "phone": "+44 131 557 2142",
        "real_ale": "3 or more beers",
        "source": "survey",
        "website": "https://www.thetheatreroyalbar.co.uk/"
      }
    },
    {
      "type": "node",
      "id": 1558008745,
      "lat": 55.9542510,
      "lon": -3.1873486,
      "tags": {
        "addr:city": "Edinburgh",
        "addr:housenumber": "43",
        "addr:postcode": "EH1 3AT",
        "addr:street": "Leith Street",
        "amenity": "pub",
        "check_date": "2023-03-28",
        "name": "The Black Bull",
        "source": "survey"
      }
    },
    {
      "type": "node",
      "id": 1558429123,
      "lat": 55.9508675,
      "lon": -3.1907041,
      "tags": {
        "addr:city": "Edinburgh",
        "addr:housenumber": "17",
        "addr:postcode": "EH1 1DE",
        "addr:street": "Market Street",
        "amenity": "pub",
        "internet_access": "wlan",
        "name": "Hebrides Bar",
        "phone": "+44 131 220 4213",
        "source": "survey",
        "toilets:wheelchair": "no",
        "wheelchair": "limited"
      }
    },
    {
      "type": "node",
      "id": 1558430340,
      "lat": 55.9508879,
      "lon": -3.1905922,
      "tags": {
        "addr:city": "Edinburgh",
        "addr:housenumber": "15-16",
        "addr:postcode": "EH1 1DE",
        "addr:street": "Market Street",
        "amenity": "pub",
        "diet:vegan": "yes",
        "diet:vegetarian": "yes",
        "food": "yes",
        "indoor_seating": "yes",
        "name": "The Doric",
        "phone": "+44 131 225 1084",
        "source": "survey",
        "toilets:wheelchair": "no",
        "website": "http://www.the-doric.com/",
        "wheelchair": "limited"
      }
    },
    {
      "type": "node",
      "id": 1558431275,
      "lat": 55.9536204,
      "lon": -3.1920758,
      "tags": {
        "addr:city": "Edinburgh",
        "addr:country": "GB",
        "addr:housenumber": "1,2",
        "addr:postcode": "EH2 2BD",
        "addr:street": "St Andrew Square",
        "amenity": "pub",
        "fhrs:id": "522786",
        "indoor_seating": "yes",
        "name": "Tiles Bar",
        "opening_hours": "Mo-Th 11:00-23:00; Fr-Sa 09:30-00:00; Su 10:00-23:00",
        "outdoor_seating": "yes",
        "phone": "+44 131 557 3228",
        "website": "https://www.tilesbar.co.uk/",
        "wheelchair": "no"
      }
    },
    {
      "type": "node",
      "id": 2110964848,
      "lat": 55.9536574,
      "lon": -3.1880643,
      "tags": {
        "addr:city": "Edinburgh",
        "addr:housenumber": "3",
        "addr:postcode": "EH1 3BG",
        "addr:street": "Waterloo Place",
        "amenity": "pub",
        "indoor_seating": "yes",
        "name": "Waterloo Bar",
        "outdoor_seating": "yes",
        "source": "survey"
      }
    },
    {
      "type": "node",
      "id": 2112426253,
      "lat": 55.9504288,
      "lon": -3.1865438,
      "tags": {
        "addr:city": "Edinburgh",
        "addr:housenumber": "119",
        "addr:postcode": "EH1 1SG",
        "addr:street": "High Street",
        "amenity": "pub",
        "fhrs:id": "109532",
        "indoor_seating": "yes",
        "name": "Whiski",
        "outdoor_seating": "yes",
        "source": "survey",
        "source:addr:postcode": "FHRS Open Data"
      }
    },
    {
      "type": "node",
      "id": 2121794767,
      "lat": 55.9565066,
      "lon": -3.1857448,
      "tags": {
        "addr:city": "Edinburgh",
        "addr:country": "GB",
        "addr:postcode": "EH1 3AJ",
        "addr:street": "Leith Walk",
        "addr:unit": "1",
        "amenity": "pub",
        "brand": "Wetherspoon",
        "brand:wikidata": "Q6109362",
        "brand:wikipedia": "en:Wetherspoons",
        "contact:website": "https://www.jdwetherspoon.com/pubs/all-pubs/scotland/edinburgh/the-playfair-edinburgh",
        "level": "1",
        "name": "The Playfair",
        "opening_hours": "Mo-Fr 08:00-01:00; Sa-Su 07:00-01:00",
        "phone": "+44 131 524 7760",
        "source": "survey"
      }
    },
    {
      "type": "node",
      "id": 2323807241,
      "lat": 55.9495157,
      "lon": -3.1879514,
      "tags": {
        "addr:city": "Edinburgh",
        "addr:housenumber": "7",
        "addr:postcode": "EH1 1QW",
        "addr:street": "Blair Street",
        "amenity": "pub",
        "fhrs:id": "52652",
        "name": "The Advocate",
        "source": "survey"
      }
    },
    {
      "type": "node",
      "id": 2338749883,
      "lat": 55.9488466,
      "lon": -3.1866449,
      "tags": {
        "addr:city": "Edinburgh",
        "addr:housenumber": "212",
        "addr:postcode": "EH1 1NQ",
        "addr:street": "Cowgate",
        "amenity": "pub",
        "check_date": "2023-07-11",
        "name": "Bannerman's Bar",
        "phone": "+44 131 556 3254",
        "source": "survey",
        "website": "https://www.bannermanslive.co.uk/",
        "wheelchair": "limited"
      }
    },
    {
      "type": "node",
      "id": 2555487974,
      "lat": 55.9503002,
      "lon": -3.1916383,
      "tags": {
        "addr:city": "Edinburgh",
        "addr:country": "GB",
        "addr:housename": "Advocate's Close",
        "addr:housenumber": "9",
        "addr:postcode": "EH1 1ND",
        "addr:street": "Advocate's Close",
        "amenity": "pub",
        "description": "bar and restaurant",
        "fhrs:id": "688859",
        "food": "yes",
        "name": "Devil's Advocate",
        "opening_hours": "Mo-Su 12:00-01:00",
        "phone": "+44 131 225 4465",
        "source": "survey",
        "website": "https://devilsadvocateedinburgh.co.uk/"
      }
    },
    {
      "type": "node",
      "id": 2621234519,
      "lat": 55.9522424,
      "lon": -3.1890178,
      "tags": {
        "addr:city": "Edinburgh",
        "addr:housename": "Waverley Station",
        "addr:postcode": "EH1 1BB",
        "amenity": "pub",
        "fhrs:id": "52764",
        "level": "0",
        "name": "The Beer House",
        "old_name": "Nor' Loch",
        "opening_hours": "Mo-We 07:00-23:00; Th 08:00-23:00; Fr-Sa 08:00-00:00; Su 12:30-23:00",
        "outdoor_seating": "no",
        "smoking": "no",
        "source": "survey"
      }
    },
    {
      "type": "node",
      "id": 2931382078,
      "lat": 55.9509718,
      "lon": -3.1888797,
      "tags": {
        "addr:city": "Edinburgh",
        "addr:housenumber": "24",
        "addr:postcode": "EH1 1BX",
        "addr:street": "Fleshmarket Close",
        "amenity": "pub",
        "fhrs:id": "120516",
        "indoor_seating": "yes",
        "name": "The Halfway House",
        "outdoor_seating": "yes",
        "source": "survey",
        "source:addr:postcode": "code-point_open",
        "website": "http://halfwayhouse-edinburgh.com/"
      }
    },
    {
      "type": "node",
      "id": 2931382079,
      "lat": 55.9509023,
      "lon": -3.1888514,
      "tags": {
        "addr:city": "Edinburgh",
        "addr:housenumber": "22",
        "addr:postcode": "EH1 1BX",
        "addr:street": "Fleshmarket Close",
        "amenity": "pub",
        "fhrs:id": "144870",
        "name": "The Jinglin' Geordie",
        "source": "survey",
        "source:addr:postcode": "code-point_open",
        "website": "http://jinglingeordie.co.uk/"
      }
    },
    {
      "type": "node",
      "id": 2954633083,
      "lat": 55.9499346,
      "lon": -3.1872649,
      "tags": {
        "addr:city": "Edinburgh",
        "addr:housenumber": "4-6",
        "addr:postcode": "EH1 1LL",
        "addr:street": "South Bridge",
        "amenity": "pub",
        "check_date": "2023-03-04",
        "contact:facebook": "https://www.facebook.com/WhistleBinkiesEdinburgh",
        "email": "info@whistlebinkies.com",
        "level": "-1",
        "name": "Whistlebinkies",
        "payment:american_express": "no",
        "payment:credit_cards": "yes",
        "payment:debit_cards": "yes",
        "phone": "+44 131 557 5114",
        "source": "survey",
        "website": "https://www.whistlebinkies.com/",
        "wheelchair": "no"
      }
    },
    {
      "type": "node",
      "id": 2957210633,
      "lat": 55.9504575,
      "lon": -3.1842655,
      "tags": {
        "addr:city": "Edinburgh",
        "addr:housenumber": "3-5",
        "addr:street": "St Mary's Street",
        "amenity": "pub",
        "indoor_seating": "yes",
        "name": "The Waverley",
        "outdoor_seating": "yes",
        "source": "survey"
      }
    },
    {
      "type": "node",
      "id": 2964238033,
      "lat": 55.9505080,
      "lon": -3.1843266,
      "tags": {
        "addr:city": "Edinburgh",
        "addr:country": "GB",
        "addr:housenumber": "2-8",
        "addr:postcode": "EH1 1TB",
        "addr:street": "High Street",
        "amenity": "pub",
        "fhrs:id": "124960",
        "indoor_seating": "yes",
        "microbrewery": "yes",
        "name": "The World's End",
        "opening_hours": "Mo-Fr 11:00-01:00; Sa-Su 10:00-01:00",
        "outdoor_seating": "yes",
        "source": "survey",
        "website": "https://www.belhavenpubs.co.uk/pubs/midlothian/worlds-end/"
      }
    },
    {
      "type": "node",
      "id": 3059661502,
      "lat": 55.9507741,
      "lon": -3.1824251,
      "tags": {
        "addr:city": "Edinburgh",
        "addr:housenumber": "232",
        "addr:postcode": "EH8 8DQ",
        "addr:street": "Canongate",
        "amenity": "pub",
        "fhrs:id": "124765",
        "name": "The Canons' Gait",
        "source": "survey",
        "source:addr:postcode": "FHRS Open Data"
      }
    },
    {
      "type": "node",
      "id": 3214009984,
      "lat": 55.9507075,
      "lon": -3.1844223,
      "tags": {
        "addr:city": "Edinburgh",
        "addr:housenumber": "1",
        "addr:postcode": "EH1 1SR",
        "addr:street": "High Street",
        "amenity": "pub",
        "fhrs:id": "51748",
        "indoor_seating": "yes",
        "internet_access": "wlan",
        "name": "No.1 High Street",
        "outdoor_seating": "yes",
        "source": "survey",
        "website": "https://www.no1highstreetedinburgh.co.uk/"
      }
    },
    {
      "type": "node",
      "id": 9356174191,
      "lat": 55.9514300,
      "lon": -3.1828272,
      "tags": {
        "amenity": "pub",
        "brand": "BrewDog",
        "brand:wikidata": "Q911367",
        "indoor_seating": "yes",
        "name": "Brewdog Doghouse Bar & Terrace",
        "outdoor_seating": "yes"
      }
    },
    {
      "type": "node",
      "id": 10860672669,
      "lat": 55.9511886,
      "lon": -3.1814174,
      "tags": {
        "addr:city": "Edinburgh",
        "addr:housenumber": "223",
        "addr:postcode": "EH8 8BJ",
        "addr:street": "Canongate",
        "amenity": "pub",
        "check_date": "2023-05-01",
        "name": "MacKays on the Mile",
        "outdoor_seating": "yes",
        "website": "https://www.oldtownpubco.com/our-bars/mackays-on-the-mile/",
        "wheelchair": "yes"
      }
    },
    {
      "type": "way",
      "id": 377738789,
      "nodes": [
        835527764,
        835527770,
        3811345861,
        3811345862,
        3811345863,
        3811345859,
        3811345858,
        3811345860,
        835527764
      ],
      "tags": {
        "addr:city": "Edinburgh",
        "addr:country": "GB",
        "addr:housenumber": "17",
        "addr:postcode": "EH1 1BQ",
        "addr:street": "Waverley Bridge",
        "amenity": "pub",
        "brand": "Wetherspoon",
        "brand:wikidata": "Q6109362",
        "brand:wikipedia": "en:Wetherspoons",
        "building": "yes",
        "contact:website": "https://www.jdwetherspoon.com/pubs/all-pubs/scotland/edinburgh/booking-office-edinburgh",
        "indoor_seating": "yes",
        "layer": "1",
        "name": "Booking Office",
        "outdoor_seating": "yes",
        "phone": "+44 131 558 1003",
        "ref:vatin": "GB396331433",
        "source": "survey",
        "toilets": "yes",
        "toilets:wheelchair": "yes",
        "wheelchair": "yes"
      }
    },
    {
      "type": "node",
      "id": 835527764,
      "lat": 55.9516356,
      "lon": -3.1914913
    },
    {
      "type": "node",
      "id": 835527770,
      "lat": 55.9518176,
      "lon": -3.1915820
    },
    {
      "type": "node",
      "id": 3811345858,
      "lat": 55.9516010,
      "lon": -3.1913034
    },
    {
      "type": "node",
      "id": 3811345859,
      "lat": 55.9516181,
      "lon": -3.1911935
    },
    {
      "type": "node",
      "id": 3811345860,
      "lat": 55.9516604,
      "lon": -3.1913330
    },
    {
      "type": "node",
      "id": 3811345861,
      "lat": 55.9518383,
      "lon": -3.1914499
    },
    {
      "type": "node",
      "id": 3811345862,
      "lat": 55.9519111,
      "lon": -3.1914862
    },
    {
      "type": "node",
      "id": 3811345863,
      "lat": 55.9519324,
      "lon": -3.1913501
    }

  ]
}
